BEIDOU-2 G8             
1 44231U 19027A   26159.30108775 -.00000231  00000+0  00000+0 0  9992
2 44231   1.6347  74.4891 0010552 284.2970 150.8174  1.00274494 25997
COSMOS 2534 [GLONASS-M] 
1 44299U 19030A   26158.24347285  .00000085  00000+0  00000+0 0  9999
2 44299  64.3678 192.9512 0013229 275.1737 155.4482  2.13102468 54715
BEIDOU-3 IGSO-2         
1 44337U 19035A   26157.58006347 -.00000062  00000+0  00000+0 0  9990
2 44337  55.2446 158.9549 0039839 216.2059 208.5586  1.00270343 25569
NAVSTAR 78 (USA 293)    
1 44506U 19056A   26157.17406002 -.00000063  00000+0  00000+0 0  9999
2 44506  55.6435 331.5809 0061451 197.4701 157.7136  2.00569824 49845
BEIDOU-3 M24            
1 44542U 19061A   26158.04033344  .00000094  00000+0  00000+0 0  9990
2 44542  54.3959 183.0702 0008273 359.3999   0.6544  1.86229315 45605
BEIDOU-3 M23            
1 44543U 19061B   26159.24120353  .00000108  00000+0  00000+0 0  9997
2 44543  54.3944 182.9980 0005545 338.6609  18.1679  1.86227603 45626
EUTELSAT 5 WEST B       
1 44624U 19067A   26159.27146663 -.00000026  00000+0  00000+0 0  9998
2 44624   0.0635 345.8627 0003179  91.6173 271.9230  1.00272023 24342
BEIDOU-3 IGSO-3         
1 44709U 19073A   26136.81046384 -.00000217  00000+0  00000+0 0  9995
2 44709  54.8566 281.2355 0042953 189.4588 170.3676  1.00246251 24144
BEIDOU-3 M22            
1 44793U 19078A   26157.87999249 -.00000055  00000+0  00000+0 0  9999
2 44793  53.9461 300.1905 0006598  49.5245 310.5255  1.86227675 44454
BEIDOU-3 M21            
1 44794U 19078B   26158.55690052 -.00000056  00000+0  00000+0 0  9997
2 44794  53.9185 300.1281 0004463  47.5961 312.4345  1.86228087 44478
COSMOS 2544 [GLONASS-M] 
1 44850U 19088A   26158.64414581 -.00000010  00000+0  00000+0 0  9992
2 44850  65.5607  74.0490 0013653 259.6167 100.2516  2.13102192 50517
BEIDOU-3 M19            
1 44864U 19090A   26157.45598128 -.00000038  00000+0  00000+0 0  9998
2 44864  56.5493  63.1460 0018115 297.5322 241.6390  1.86231867 44034
BEIDOU-3 M20            
1 44865U 19090B   26157.32280718 -.00000038  00000+0  00000+0 0  9998
2 44865  56.5509  63.1852 0016140 310.9731 228.5055  1.86231730 44017
BEIDOU-3 G2             
1 45344U 20017A   26159.14567939 -.00000126  00000+0  00000+0 0  9995
2 45344   2.8454  47.2011 0002589  27.6442 314.1894  1.00273948 23165
COSMOS 2545 [GLONASS-M] 
1 45358U 20018A   26158.83918744 -.00000031  00000+0  00000+0 0  9995
2 45358  64.3612 312.7475 0007948 231.5141 128.4125  2.13102843 48462
BEIDOU-3 G3             
1 45807U 20040A   26159.29432773 -.00000338  00000+0  00000+0 0  9993
2 45807   2.4246  67.4298 0002916 337.9515  67.8456  1.00272210 21982
NAVSTAR 79 (USA 304)    
1 45854U 20041A   26158.51480097 -.00000067  00000+0  00000+0 0  9991
2 45854  56.6631  29.3193 0063521 204.6414 337.4617  2.00559006 43847
GALAXY 30 (G-30)        
1 46114U 20056C   26158.96248221  .00000052  00000+0  00000+0 0  9990
2 46114   0.0178 358.1248 0002238  76.5119  43.2111  1.00272767 21208
COSMOS 2547 [GLONASS-K] 
1 46805U 20075A   26156.21307741  .00000069  00000+0  00000+0 0  9995
2 46805  64.5987 192.8757 0009155 239.4130 120.5675  2.13100365 43650
NAVSTAR 80 (USA 309)    
1 46826U 20078A   26159.28285962  .00000057  00000+0  00000+0 0  9998
2 46826  53.9810 211.1400 0073181 206.9188 145.7868  2.00564887 41326
NAVSTAR 81 (USA 319)    
1 48859U 21054A   26159.01558419 -.00000060  00000+0  00000+0 0  9997
2 48859  55.1794 332.8289 0025106 228.6051 117.2821  2.00569684 36562
QZS-1R (MICHIBIKI-1R)   
1 49336U 21096A   26158.65576574 -.00000231  00000+0  00000+0 0  9995
2 49336  37.4420  79.7260 0754275 271.5943 275.3757  1.00259216 16918
GSAT0223 (GALILEO 27)   
1 49809U 21116A   26158.90513906 -.00000062  00000+0  00000+0 0  9993
2 49809  57.1628 341.9264 0001255 184.9804 358.2440  1.70476094 28023
GSAT0224 (GALILEO 28)   
1 49810U 21116B   26158.15577256 -.00000063  00000+0  00000+0 0  9991
2 49810  57.1646 341.9453 0000936 147.8302  48.1138  1.70476179 28035
COSMOS 2557 [GLONASS-K] 
1 52984U 22075A   26155.90818447 -.00000037  00000+0  00000+0 0  9993
2 52984  64.3043 314.9179 0010156 276.0496  83.8276  2.13102273 30458
COSMOS 2559 [GLONASS-K] 
1 54031U 22130A   26157.13557347 -.00000032  00000+0  00000+0 0  9991
2 54031  64.2805 314.9582 0012373 177.2217 182.7817  2.13101704 28457
COSMOS 2564 [GLONASS-M] 
1 54377U 22161A   26157.44814877  .00000077  00000+0  00000+0 0  9994
2 54377  64.7407 193.0683 0012054 224.2405 135.7317  2.13102053 27404
NAVSTAR 82 (USA 343)    
1 55268U 23009A   26158.23864182  .00000101  00000+0  00000+0 0  9996
2 55268  55.1217 148.9102 0006192 318.0671 224.9740  2.00572185 25047
BEIDOU-3 G4             
1 56564U 23066A   26159.22889682 -.00000267  00000+0  00000+0 0  9995
2 56564   0.4977 329.0392 0004416 169.9422 340.0157  1.00266899 11307
NVS-01 (IRNSS-1J)       
1 56759U 23076A   26159.22681681 -.00000319  00000+0  00000+0 0  9999
2 56759   2.1883 244.7627 0002970  40.5415 182.5596  1.00269795 11024
COSMOS 2569 [GLONASS-K2]
1 57517U 23114A   26157.92975490 -.00000010  00000+0  00000+0 0  9992
2 57517  65.2965  72.9664 0011067 296.7940  63.1169  2.13103762 22045
